{
  "type": "FeatureCollection",
  "features": [
    {
      "type": "Feature",
      "properties": {
        "norad_id": 26766,
        "name": "INTELSAT 10 (IS-10)",
        "group": "intelsat",
        "lat": 3.202961280407512,
        "lon": 82.5067639824076,
        "alt_km": 36154.34064605465,
        "timestamp": "2025-12-21T16:47:54.396294+00:00",
        "meta_object_name": "INTELSAT 10 (IS-10)",
        "meta_object_id": "2001-019A",
        "meta_epoch": "2025-12-20T17:29:18.796128",
        "meta_mean_motion": 0.9907436,
        "meta_eccentricity": 0.00077475,
        "meta_inclination": 8.6473,
        "meta_ra_of_asc_node": 61.0766,
        "meta_arg_of_pericenter": 228.8053,
        "meta_mean_anomaly": 166.3968,
        "meta_ephemeris_type": 0,
        "meta_classification_type": "U",
        "meta_norad_cat_id": 26766,
        "meta_element_set_no": 999,
        "meta_rev_at_epoch": 4381,
        "meta_bstar": 0,
        "meta_mean_motion_dot": -1.02e-06,
        "meta_mean_motion_ddot": 0,
        "tle_line1": "1 26766U 01019A   25354.72868977 -.00000102  00000+0  00000+0 0  9993",
        "tle_line2": "2 26766   8.6473  61.0766 0007747 228.8053 166.3968  0.99074360 43819"
      },
      "geometry": {
        "type": "Point",
        "coordinates": [
          82.5067639824076,
          3.202961280407512
        ]
      }
    },
    {
      "type": "Feature",
      "properties": {
        "norad_id": 26900,
        "name": "INTELSAT 902 (IS-902)",
        "group": "intelsat",
        "lat": -3.543138995321415,
        "lon": -67.77182166817451,
        "alt_km": 35770.70798062363,
        "timestamp": "2025-12-21T16:47:54.396318+00:00",
        "meta_object_name": "INTELSAT 902 (IS-902)",
        "meta_object_id": "2001-039A",
        "meta_epoch": "2025-12-15T13:09:02.081664",
        "meta_mean_motion": 1.0027087,
        "meta_eccentricity": 0.00045028,
        "meta_inclination": 5.6536,
        "meta_ra_of_asc_node": 74.0372,
        "meta_arg_of_pericenter": 189.6359,
        "meta_mean_anomaly": 327.9329,
        "meta_ephemeris_type": 0,
        "meta_classification_type": "U",
        "meta_norad_cat_id": 26900,
        "meta_element_set_no": 999,
        "meta_rev_at_epoch": 8885,
        "meta_bstar": 0,
        "meta_mean_motion_dot": -2.65e-06,
        "meta_mean_motion_ddot": 0,
        "tle_line1": "1 26900U 01039A   25349.54794076 -.00000265  00000+0  00000+0 0  9997",
        "tle_line2": "2 26900   5.6536  74.0372 0004502 189.6359 327.9329  1.00270870 88858"
      },
      "geometry": {
        "type": "Point",
        "coordinates": [
          -67.77182166817451,
          -3.543138995321415
        ]
      }
    },
    {
      "type": "Feature",
      "properties": {
        "norad_id": 27380,
        "name": "INTELSAT 904 (IS-904)",
        "group": "intelsat",
        "lat": -5.607918893054955,
        "lon": -49.17940992326382,
        "alt_km": 35779.37811257766,
        "timestamp": "2025-12-21T16:47:54.396334+00:00",
        "meta_object_name": "INTELSAT 904 (IS-904)",
        "meta_object_id": "2002-007A",
        "meta_epoch": "2025-12-21T11:20:13.445376",
        "meta_mean_motion": 1.00270601,
        "meta_eccentricity": 0.0001875,
        "meta_inclination": 6.475,
        "meta_ra_of_asc_node": 71.332,
        "meta_arg_of_pericenter": 249.2884,
        "meta_mean_anomaly": 268.2201,
        "meta_ephemeris_type": 0,
        "meta_classification_type": "U",
        "meta_norad_cat_id": 27380,
        "meta_element_set_no": 999,
        "meta_rev_at_epoch": 4998,
        "meta_bstar": 0,
        "meta_mean_motion_dot": -2.08e-06,
        "meta_mean_motion_ddot": 0,
        "tle_line1": "1 27380U 02007A   25355.47237784 -.00000208  00000+0  00000+0 0  9990",
        "tle_line2": "2 27380   6.4750  71.3320 0001875 249.2884 268.2201  1.00270601 49986"
      },
      "geometry": {
        "type": "Point",
        "coordinates": [
          -49.17940992326382,
          -5.607918893054955
        ]
      }
    },
    {
      "type": "Feature",
      "properties": {
        "norad_id": 27426,
        "name": "DIRECTV 5 (TEMPO 1)",
        "group": "intelsat",
        "lat": 1.8651986875037014,
        "lon": -127.58825539074445,
        "alt_km": 35776.3328952501,
        "timestamp": "2025-12-21T16:47:54.396348+00:00",
        "meta_object_name": "DIRECTV 5 (TEMPO 1)",
        "meta_object_id": "2002-023A",
        "meta_epoch": "2025-12-21T12:14:49.678080",
        "meta_mean_motion": 1.0027173,
        "meta_eccentricity": 0.0003152,
        "meta_inclination": 4.423,
        "meta_ra_of_asc_node": 77.5504,
        "meta_arg_of_pericenter": 199.3766,
        "meta_mean_anomaly": 246.9893,
        "meta_ephemeris_type": 0,
        "meta_classification_type": "U",
        "meta_norad_cat_id": 27426,
        "meta_element_set_no": 999,
        "meta_rev_at_epoch": 8634,
        "meta_bstar": 0,
        "meta_mean_motion_dot": -3.8e-07,
        "meta_mean_motion_ddot": 0,
        "tle_line1": "1 27426U 02023A   25355.51029720 -.00000038  00000+0  00000+0 0  9994",
        "tle_line2": "2 27426   4.4230  77.5504 0003152 199.3766 246.9893  1.00271730 86349"
      },
      "geometry": {
        "type": "Point",
        "coordinates": [
          -127.58825539074445,
          1.8651986875037014
        ]
      }
    },
    {
      "type": "Feature",
      "properties": {
        "norad_id": 27438,
        "name": "INTELSAT 905 (IS-905)",
        "group": "intelsat",
        "lat": 4.581197117185767,
        "lon": -154.56718535804228,
        "alt_km": 35781.34393688078,
        "timestamp": "2025-12-21T16:47:54.396361+00:00",
        "meta_object_name": "INTELSAT 905 (IS-905)",
        "meta_object_id": "2002-027A",
        "meta_epoch": "2025-12-21T11:38:50.085024",
        "meta_mean_motion": 1.00272793,
        "meta_eccentricity": 0.0002688,
        "meta_inclination": 6.3061,
        "meta_ra_of_asc_node": 71.9555,
        "meta_arg_of_pericenter": 203.6165,
        "meta_mean_anomaly": 212.2349,
        "meta_ephemeris_type": 0,
        "meta_classification_type": "U",
        "meta_norad_cat_id": 27438,
        "meta_element_set_no": 999,
        "meta_rev_at_epoch": 4958,
        "meta_bstar": 0,
        "meta_mean_motion_dot": 1.12e-06,
        "meta_mean_motion_ddot": 0,
        "tle_line1": "1 27438U 02027A   25355.48530191  .00000112  00000+0  00000+0 0  9998",
        "tle_line2": "2 27438   6.3061  71.9555 0002688 203.6165 212.2349  1.00272793 49581"
      },
      "geometry": {
        "type": "Point",
        "coordinates": [
          -154.56718535804228,
          4.581197117185767
        ]
      }
    },
    {
      "type": "Feature",
      "properties": {
        "norad_id": 27445,
        "name": "GALAXY 3C (G-3C)",
        "group": "intelsat",
        "lat": 0.7030662512496871,
        "lon": -112.33414256112792,
        "alt_km": 35785.678301324864,
        "timestamp": "2025-12-21T16:47:54.396373+00:00",
        "meta_object_name": "GALAXY 3C (G-3C)",
        "meta_object_id": "2002-030A",
        "meta_epoch": "2025-12-21T11:02:13.327872",
        "meta_mean_motion": 1.00272042,
        "meta_eccentricity": 0.0001154,
        "meta_inclination": 3.2842,
        "meta_ra_of_asc_node": 80.415,
        "meta_arg_of_pericenter": 80.4319,
        "meta_mean_anomaly": 0.1307,
        "meta_ephemeris_type": 0,
        "meta_classification_type": "U",
        "meta_norad_cat_id": 27445,
        "meta_element_set_no": 999,
        "meta_rev_at_epoch": 4471,
        "meta_bstar": 0,
        "meta_mean_motion_dot": -1.32e-06,
        "meta_mean_motion_ddot": 0,
        "tle_line1": "1 27445U 02030A   25355.45987648 -.00000132  00000+0  00000+0 0  9993",
        "tle_line2": "2 27445   3.2842  80.4150 0001154  80.4319   0.1307  1.00272042 44712"
      },
      "geometry": {
        "type": "Point",
        "coordinates": [
          -112.33414256112792,
          0.7030662512496871
        ]
      }
    },
    {
      "type": "Feature",
      "properties": {
        "norad_id": 27513,
        "name": "INTELSAT 906 (IS-906)",
        "group": "intelsat",
        "lat": -2.532909930657116,
        "lon": 46.78285354305259,
        "alt_km": 35803.967159367465,
        "timestamp": "2025-12-21T16:47:54.396386+00:00",
        "meta_object_name": "INTELSAT 906 (IS-906)",
        "meta_object_id": "2002-041A",
        "meta_epoch": "2025-12-21T04:56:34.091232",
        "meta_mean_motion": 1.00272969,
        "meta_eccentricity": 0.0006318,
        "meta_inclination": 5.3511,
        "meta_ra_of_asc_node": 75.1309,
        "meta_arg_of_pericenter": 199.595,
        "meta_mean_anomaly": 313.578,
        "meta_ephemeris_type": 0,
        "meta_classification_type": "U",
        "meta_norad_cat_id": 27513,
        "meta_element_set_no": 999,
        "meta_rev_at_epoch": 8524,
        "meta_bstar": 0,
        "meta_mean_motion_dot": 3.2e-07,
        "meta_mean_motion_ddot": 0,
        "tle_line1": "1 27513U 02041A   25355.20595013  .00000032  00000+0  00000+0 0  9993",
        "tle_line2": "2 27513   5.3511  75.1309 0006318 199.5950 313.5780  1.00272969 85248"
      },
      "geometry": {
        "type": "Point",
        "coordinates": [
          46.78285354305259,
          -2.532909930657116
        ]
      }
    }
  ]
}